0 ARIANE 44L DEB
1 33590U 91003T   13282.01006895  .00000113  00000-0  27729-2 0  5370
2 33590 007.5106 072.2670 6818180 103.7691 321.4774 02.66578457 98469
0 ARIANE 44L DEB
1 33590U 91003T   13283.87775448  .00000132  00000-0  33520-2 0  5380
2 33590 007.5132 071.3897 6818014 105.4853 313.8464 02.66579022 98510
0 ARIANE 44L DEB
1 33590U 91003T   13285.74739355  .00000147  00000-0  37386-2 0  5408
2 33590 007.5156 070.5138 6817813 107.2007 308.0957 02.66580056 98569
0 ARIANE 44L DEB
1 33590U 91003T   13289.13074248  .00000136  00000-0  32475-2 0  5411
2 33590 007.5201 068.9243 6817279 110.3110 315.0293 02.66583664 98653
0 ARIANE 44L DEB
1 33590U 91003T   13290.61803719  .00000190  00000-0  36306-2 0  5427
2 33590 007.5219 068.2308 6817097 111.6694 302.3761 02.66585569 98695
0 ARIANE 44L DEB
1 33590U 91003T   13290.64733918  .00000910  00000-0  10461-1 0  5437
2 33590 007.5192 068.2506 6818732 111.6607 330.4851 02.66584032 98704
0 ARIANE 44L DEB
1 33590U 91003T   13291.63998381  .00000180  00000-0  34265-2 0  5432
2 33590 007.5237 067.7480 6816771 112.6127 203.1306 02.66586350 98715
0 ARIANE 44L DEB
1 33590U 91003T   13292.82864760  .00000133  00000-0  28685-2 0  5445
2 33590 007.5253 067.1916 6816595 113.7017 263.8923 02.66587809 98757
0 ARIANE 44L DEB
1 33590U 91003T   13294.74974821  .00000069  00000-0  23271-2 0  5453
2 33590 007.5283 066.2892 6816122 115.4660 307.5740 02.66589028 98806
